#dP2022  6 28  0  0  0.00000000      96 __u+U ITR14 FIT  IAC
## 2216 172800.00000000   900.00000000 59758 0.0000000000000
+  126   C01C02C03C04C05C06C07C08C09C10C11C12C13C14C16C19C20
+        C21C22C23C24C25C26C27C28C29C30C32C33C34C35C36C37C38
+        C39C40C41C42C43C44C45C46C60E01E02E03E04E05E07E08E09
+        E10E11E12E13E14E15E18E19E21E24E25E26E27E30E31E33E34
+        E36G01G02G03G04G05G06G07G08G09G10G11G12G13G14G15G16
+        G17G18G19G20G21G22G23G24G25G26G27G28G29G30G31G32J02
+        J03J07R01R02R03R04R05R06R07R08R09R10R11R12R13R14R15
+        R17R18R19R20R21R23R24  0  0  0  0  0  0  0  0  0  0
++        17 16 17 17 19  9  9  9  8  9  9  8  9  9  9  7  7
++         7  7  7  7  7  7  7  7  7  7  7  7  7  7  7  8  8
++         8  8  7  7  7  7  7  7 17  4  5  4  4  4  4  4  4
++         5  4  4  4  4  4  4  4  4  4  4  4  4  5  4  4  4
++         4  4  4  4  4  4  4  4  4  4  3  4  4  4  4  4  4
++         4  3  4  4  4  4  3  3  4  4  4  4  4  4  4  4  8
++         8 17  7  6  6  6  6  0  6  6  6  0  6  6  7  6  6
++         6  6  7  7  6  0  8  0  0  0  0  0  0  0  0  0  0
%c M  cc GPS ccc cccc cccc cccc cccc ccccc ccccc ccccc ccccc
%c cc cc ccc ccc cccc cccc cccc cccc ccccc ccccc ccccc ccccc
%f  0.0000000  0.000000000  0.00000000000  0.000000000000000
%f  0.0000000  0.000000000  0.00000000000  0.000000000000000
%i    0    0    0    0      0      0      0      0         0
%i    0    0    0    0      0      0      0      0         0
/* INFORMATION & ANALYSIS CENTER (IAC)            RAPID DATA
/* S/V CLOCKS ARE ALIGNED TO GNSS TIME                      
/* G:C1WC2W R:C1PC2P E:C1XC5X C:C2IC6I J:C1CC2S             
/* PCV:IGS14_2196 OL/AL:FES2004  NONE     YN ORB:CoN CLK:CoN
*  2022 06 28 17 30  0.00000000
PC01 -34380.434723  24428.081684   -614.993630    359.461029
PC02   4432.914883  41956.435937     11.503443   -131.245196
PC03 -14715.141460  39532.964913   -734.963548   -509.891246
PC04 -39642.509697  14399.247889   -614.088242    179.626115
PC05  21928.535416  36078.800614    193.513588 999999.999999
PC06 -11634.501755  24161.664333  32499.729712    283.675569
PC07 -11781.691888  40434.451397  -3555.012343   -359.151769
PC08   2295.501788  31238.168421 -28164.967002    382.390793
PC09  -3728.155636  24627.050963  34359.655414   -926.885046
PC10  -7216.783722  40857.405357  -8604.109820    122.910521
PC11  24747.401637   5139.489051 -11733.231002    442.378132
PC12   9077.186582  13834.420027 -22439.282319   -589.055376
PC13   6344.624333  33792.952939 -24090.808612      8.896979
PC14  14497.813045   6407.324592  22988.509640    519.706772
PC16 -14820.004738  23341.797000  31949.991479    141.602339
PC19 -17542.407049   4618.865672 -21187.222069    -97.446697
PC20 -10107.755027 -14450.128675 -21605.553011   -964.784323
PC21  -3980.430036  26128.540317   9017.960805   -573.974681
PC22 -15206.939759  21820.706327  -8502.047400   -963.234784
PC23  11138.540084 -12108.447720 -22528.884727   -938.548843
PC24  17855.963833  21372.024599  -1596.791117   -968.801149
PC25  20733.780982   5190.211491 -17936.156697   -715.263300
PC26   6227.475140  23441.479845  13764.077098    717.024297
PC27   1126.930925 -16035.622720  22786.925871    746.057269
PC28  20009.390081 -12712.190908  14716.928611     83.867203
PC29 -27657.210251   2600.677403   2654.577280    574.562409
PC30 -18507.194191  -9935.243324  18351.150130    500.471324
PC32   3829.222362 -26146.784115  -8927.368569   -972.508534
PC33  17523.855533  -4552.259481  21234.503086    -40.873277
PC34  19420.821441   9427.939624 -17709.711708   -370.633867
PC35 -20436.170912  13014.222587 -13833.414096    341.637463
PC36 -20746.263263  -6201.349816  17633.023653   -970.976655
PC37  -4693.223741 -23286.256623 -14638.392393   -911.922122
PC38  -5344.612603  27628.366603 -31338.381138      6.391557
PC39 -20118.688307  23091.006575  28949.501366     34.994179
PC40 -19023.000291  37746.730936   -309.064147    281.169033
PC41  15366.533789 -21495.521613   9016.866976    -38.002169
PC42   9497.348725  15507.784705  21218.258573   -956.816063
PC43  27643.348590  -1987.910377  -3369.056241   -915.534270
PC44   -717.262381  16234.355704 -22699.640532    707.057409
PC45 -10814.325999  12309.672261  22595.492826    795.307576
PC46 -18598.738393 -20592.538578   3137.951220   -403.541115
PC60   7244.792934  41525.506655  -1530.163369     -0.245445
PE01 -11524.080824  18158.469039  20341.994224   -504.978039
PE02  11430.161681 -18331.269731 -20239.803154    308.587723
PE03  22094.519484 -19519.423854  -2547.662722   -573.548867
PE04  -6814.621794  21979.678479  18631.251238  -1059.950751
PE05  24691.667552  -5523.353327  15365.128483   -167.900970
PE07 -12901.659028 -11442.804106 -24048.783532   -682.688231
PE08   6606.439979 -21855.164474 -18824.384683   -554.501016
PE09  12857.668841  11291.850212  24158.586256   -569.281824
PE10  14005.241703  18383.980862 -18506.618597   -522.756910
PE11  22696.693723  16137.094339 -10069.184071   3194.401955
PE12   3506.307159  17790.212176 -23409.458621    -34.603734
PE13 -22260.078340 -16293.343770  10721.217320    429.537309
PE14 -18724.969646  22471.446720 -13112.222462  -1794.508237
PE15  -3383.454893 -17668.222600  23502.611054    736.560524
PE18  17756.914702 -15002.348937   6190.225164  -1276.057473
PE19 -23297.697022  18259.762197    180.436240  -5242.991081
PE21 -16907.664893  -1966.803439  24218.357252   -742.841875
PE24  12436.325418  23177.203554 -13569.535648   -695.829808
PE25  16920.079343   2300.086728 -24170.226772   -579.211693
PE26 -27775.017092  -4729.684273  -9084.462576  -1315.656350
PE27 -13005.339456 -22306.928359  14481.313193   -332.625833
PE30   -720.886825 -29239.887979  -4585.964112   -629.553926
PE31   1473.773532  29332.644988   3705.667373   -499.031958
PE33 -17377.306946   8622.213738 -22359.163032   -455.198268
PE34  17194.051907  -8769.499877  22425.846899   -524.438584
PE36  27920.793234   5377.383884   8236.079629   -394.630827
PG01  22315.990408  14534.030651  -2827.785978    331.964374
PG02  -5582.087483 -17444.048860  19832.273116   -652.184832
PG03  12372.202704  15575.019378  17541.351749   -292.328435
PG04  16538.531265   6456.050479  19790.649210   -152.038680
PG05  -6174.062329 -25027.982515  -6242.498543    -87.197320
PG06   9959.804828 -11137.346965  22026.213887    362.588487
PG07  23781.603951   3704.087656 -11351.777021    320.880378
PG08   9687.729880  11782.298514 -21799.638162    -74.013869
PG09  22642.536075  -3284.937384  13454.765343   -324.198017
PG10 -11656.843069  15444.851166 -17911.148109   -472.365986
PG11  -3759.576081 -17949.904783  19214.588807    -12.475339
PG12  -9784.697707 -19161.977534  15378.351549   -238.204497
PG13   1385.569118 -16394.428115 -20966.949884    338.396788
PG14  13173.441545 -13873.346492 -18380.789245   -111.984199
PG15 -11356.508491 -11445.213197 -21535.988645    -49.629474
PG16   -359.748396  26266.032457  -1740.467808   -512.072079
PG17  22475.298272 -14037.332567   2597.839737    630.564569
PG18 -23425.734511  -3728.517003 -12081.726516    128.988664
PG19  18165.768381 -16234.322631  10041.966668    176.727203
PG20   -416.213204 -25958.784849   6154.195451    507.613360
PG21  18031.700029  16245.405658 -10931.817006    161.264400
PG22 -15246.524192  17780.121250  12772.410307    283.422143
PG23 -14702.516108   4069.400961 -21744.788534    -30.407446
PG24 -21079.145880 -15023.971745  -7153.761767    210.155224
PG25 -15042.423535  -5040.659059  21052.542455    342.884935
PG26  -4839.544555  24154.886153   9427.124034    215.130868
PG27  -4210.218477  17991.979259 -19142.994831    218.694982
PG28   9343.163977 -21861.521381 -11568.054519    328.731084
PG29 -23012.552223   2046.349026  13117.964883   -528.498537
PG30  18384.433903  -5298.980842 -18434.716102   -532.674404
PG31  -8162.787686  12944.565120  21582.772098   -183.632702
PG32 -20390.502670  16356.987494   4232.045275   -162.649698
PJ02 -26867.326505  24904.005422  25921.056202     -1.097306
PJ03 -30507.147073  18819.853485 -17454.152071     -3.148396
PJ07 -25348.738059  33702.062313    -13.229783 999999.999999
PR01   5778.546982 -21258.634261 -12841.948358     10.635262
PR02  -7499.053051  -8211.921201 -22915.136411    522.610054
PR03 -15741.702212   8647.637508 -18041.756729     59.262385
PR04 -15049.030251  20332.385179  -3225.119983    148.655794
PR05  -6173.516019  20815.091400  13386.100649     95.378242
PR06      0.000000      0.000000      0.000000 999999.999999
PR07  15966.746554  -9321.531233  17636.901367     37.076616
PR08  15003.460842 -20401.769149   3219.093550    -65.935189
PR09  15065.550570  18624.024513  -8858.405287     62.941616
PR10      0.000000      0.000000      0.000000 999999.999999
PR11   5009.883576 -12415.821453 -21694.892104     34.863901
PR12  -7182.113207 -22843.082344  -8781.473901     19.072686
PR13 -14589.003428 -19467.638596   7655.245288    -24.066502
PR14 -13628.272058  -3808.755667  21233.882863     25.063245
PR15  -4682.070504  13202.969941  21342.327442     95.026224
PR17 -25371.075340    -75.843566  -2843.466645    538.878873
PR18 -16978.102927   6914.473286 -17705.638522    121.793014
PR19  -1355.232397  10271.955027 -23316.443659   -194.385054
PR20  19101.638156   8303.497089 -14753.679609    -73.528241
PR21  25108.031433   -484.490983   4383.108329   -313.143354
PR23      0.000000      0.000000      0.000000 999999.999999
PR24 -19764.718864  -7887.640309  14085.826162    100.929430
EOF
